[
    {
        "Altitude(m)": 553719.6663121468,
        "Argument of Periapsis(deg)": 0.013245982221427002,
        "Eccentricity": 0.0,
        "Inclination(deg)": 53.0,
        "Latitude(deg)": 18.862390810287483,
        "Longitude(deg)": -161.74157260013604,
        "Mean Anomaly(deg)": 23.819585735155197,
        "RAAN(deg)": 284.980286737056,
        "Satellite Name": "Starlink Shell 1 1254",
        "Satellite Number": 1254,
        "Semi-Major Axis(m)": 6931778.249405717,
        "Time(s)": 380
    },
    {
        "Altitude(m)": 553755.0636826287,
        "Argument of Periapsis(deg)": 0.013594560700938237,
        "Eccentricity": 0.0,
        "Inclination(deg)": 53.0,
        "Latitude(deg)": 19.34873153735585,
        "Longitude(deg)": -161.3611646274258,
        "Mean Anomaly(deg)": 24.446416938711895,
        "RAAN(deg)": 284.97976796697856,
        "Satellite Name": "Starlink Shell 1 1254",
        "Satellite Number": 1254,
        "Semi-Major Axis(m)": 6931778.249405717,
        "Time(s)": 390
    },
    {
        "Altitude(m)": 553792.5979081267,
        "Argument of Periapsis(deg)": 0.013943139180449475,
        "Eccentricity": 0.0,
        "Inclination(deg)": 53.0,
        "Latitude(deg)": 19.83406706742474,
        "Longitude(deg)": -160.97825342635645,
        "Mean Anomaly(deg)": 25.07324814226859,
        "RAAN(deg)": 284.97924919690104,
        "Satellite Name": "Starlink Shell 1 1254",
        "Satellite Number": 1254,
        "Semi-Major Axis(m)": 6931778.249405717,
        "Time(s)": 400
    },
    {
        "Altitude(m)": 553832.2293546991,
        "Argument of Periapsis(deg)": 0.014291717659960712,
        "Eccentricity": 0.0,
        "Inclination(deg)": 53.0,
        "Latitude(deg)": 20.318364147204246,
        "Longitude(deg)": -160.59276068675413,
        "Mean Anomaly(deg)": 25.700079345825337,
        "RAAN(deg)": 284.97873042682363,
        "Satellite Name": "Starlink Shell 1 1254",
        "Satellite Number": 1254,
        "Semi-Major Axis(m)": 6931778.249405717,
        "Time(s)": 410
    },
    {
        "Altitude(m)": 553873.917489149,
        "Argument of Periapsis(deg)": 0.014640296139471948,
        "Eccentricity": 0.0,
        "Inclination(deg)": 53.0,
        "Latitude(deg)": 20.80158892981653,
        "Longitude(deg)": -160.20460755570417,
        "Mean Anomaly(deg)": 26.326910549382028,
        "RAAN(deg)": 284.9782116567461,
        "Satellite Name": "Starlink Shell 1 1254",
        "Satellite Number": 1254,
        "Semi-Major Axis(m)": 6931778.249405717,
        "Time(s)": 420
    },
    {
        "Altitude(m)": 553917.6209015847,
        "Argument of Periapsis(deg)": 0.014988874618983185,
        "Eccentricity": 0.0,
        "Inclination(deg)": 53.0,
        "Latitude(deg)": 21.283706953433423,
        "Longitude(deg)": -159.8137141086428,
        "Mean Anomaly(deg)": 26.953741752938775,
        "RAAN(deg)": 284.97769288666865,
        "Satellite Name": "Starlink Shell 1 1254",
        "Satellite Number": 1254,
        "Semi-Major Axis(m)": 6931778.249405717,
        "Time(s)": 430
    },
    {
        "Altitude(m)": 553963.2973283959,
        "Argument of Periapsis(deg)": 0.015337453098494424,
        "Eccentricity": 0.0,
        "Inclination(deg)": 53.0,
        "Latitude(deg)": 21.76468311942941,
        "Longitude(deg)": -159.41999882097863,
        "Mean Anomaly(deg)": 27.580572956495473,
        "RAAN(deg)": 284.97717411659124,
        "Satellite Name": "Starlink Shell 1 1254",
        "Satellite Number": 1254,
        "Semi-Major Axis(m)": 6931778.249405717,
        "Time(s)": 440
    },
    {
        "Altitude(m)": 554010.9036756133,
        "Argument of Periapsis(deg)": 0.01568603157800566,
        "Eccentricity": 0.0,
        "Inclination(deg)": 53.0,
        "Latitude(deg)": 22.244481670043797,
        "Longitude(deg)": -159.02337955319175,
        "Mean Anomaly(deg)": 28.207404160052167,
        "RAAN(deg)": 284.9766553465137,
        "Satellite Name": "Starlink Shell 1 1254",
        "Satellite Number": 1254,
        "Semi-Major Axis(m)": 6931778.249405717,
        "Time(s)": 450
    },
    {
        "Altitude(m)": 554060.3960426822,
        "Argument of Periapsis(deg)": 0.0160346100575169,
        "Eccentricity": 0.0,
        "Inclination(deg)": 53.0,
        "Latitude(deg)": 22.72306616553859,
        "Longitude(deg)": -158.6237730237469,
        "Mean Anomaly(deg)": 28.834235363608915,
        "RAAN(deg)": 284.9761365764362,
        "Satellite Name": "Starlink Shell 1 1254",
        "Satellite Number": 1254,
        "Semi-Major Axis(m)": 6931778.249405717,
        "Time(s)": 460
    },
    {
        "Altitude(m)": 554111.7297465653,
        "Argument of Periapsis(deg)": 0.016383188537028134,
        "Eccentricity": 0.0,
        "Inclination(deg)": 53.0,
        "Latitude(deg)": 23.200399460846622,
        "Longitude(deg)": -158.22109428278426,
        "Mean Anomaly(deg)": 29.46106656716561,
        "RAAN(deg)": 284.9756178063588,
        "Satellite Name": "Starlink Shell 1 1254",
        "Satellite Number": 1254,
        "Semi-Major Axis(m)": 6931778.249405717,
        "Time(s)": 470
    },
    {
        "Altitude(m)": 554164.8593462186,
        "Argument of Periapsis(deg)": 0.01673176701653937,
        "Eccentricity": 0.0,
        "Inclination(deg)": 53.0,
        "Latitude(deg)": 23.67644368170679,
        "Longitude(deg)": -157.81525769955647,
        "Mean Anomaly(deg)": 30.087897770722357,
        "RAAN(deg)": 284.9750990362813,
        "Satellite Name": "Starlink Shell 1 1254",
        "Satellite Number": 1254,
        "Semi-Major Axis(m)": 6931778.249405717,
        "Time(s)": 480
    },
    {
        "Altitude(m)": 554219.7386674249,
        "Argument of Periapsis(deg)": 0.017080345496050607,
        "Eccentricity": 0.0,
        "Inclination(deg)": 53.0,
        "Latitude(deg)": 24.151160200274514,
        "Longitude(deg)": -157.4061764379721,
        "Mean Anomaly(deg)": 30.714728974279055,
        "RAAN(deg)": 284.9745802662038,
        "Satellite Name": "Starlink Shell 1 1254",
        "Satellite Number": 1254,
        "Semi-Major Axis(m)": 6931778.249405717,
        "Time(s)": 490
    },
    {
        "Altitude(m)": 554276.3208279304,
        "Argument of Periapsis(deg)": 0.017428923975561842,
        "Eccentricity": 0.0,
        "Inclination(deg)": 53.0,
        "Latitude(deg)": 24.624509610206424,
        "Longitude(deg)": -156.99376193323275,
        "Mean Anomaly(deg)": 31.34156017783575,
        "RAAN(deg)": 284.97406149612635,
        "Satellite Name": "Starlink Shell 1 1254",
        "Satellite Number": 1254,
        "Semi-Major Axis(m)": 6931778.249405717,
        "Time(s)": 500
    },
    {
        "Altitude(m)": 554334.5582629163,
        "Argument of Periapsis(deg)": 0.01777750245507308,
        "Eccentricity": 0.0,
        "Inclination(deg)": 53.0,
        "Latitude(deg)": 25.096451701217767,
        "Longitude(deg)": -156.57792488255896,
        "Mean Anomaly(deg)": 31.968391381392497,
        "RAAN(deg)": 284.9735427260489,
        "Satellite Name": "Starlink Shell 1 1254",
        "Satellite Number": 1254,
        "Semi-Major Axis(m)": 6931778.249405717,
        "Time(s)": 510
    },
    {
        "Altitude(m)": 554394.4027507699,
        "Argument of Periapsis(deg)": 0.018126080934584315,
        "Eccentricity": 0.0,
        "Inclination(deg)": 53.0,
        "Latitude(deg)": 25.566945433106383,
        "Longitude(deg)": -156.1585747243925,
        "Mean Anomaly(deg)": 32.59522258494919,
        "RAAN(deg)": 284.97302395597137,
        "Satellite Name": "Starlink Shell 1 1254",
        "Satellite Number": 1254,
        "Semi-Major Axis(m)": 6931778.249405717,
        "Time(s)": 520
    },
    {
        "Altitude(m)": 554455.8054391287,
        "Argument of Periapsis(deg)": 0.018474659414095554,
        "Eccentricity": 0.0,
        "Inclination(deg)": 53.0,
        "Latitude(deg)": 26.03594890924485,
        "Longitude(deg)": -155.73561911909036,
        "Mean Anomaly(deg)": 33.22205378850589,
        "RAAN(deg)": 284.97250518589397,
        "Satellite Name": "Starlink Shell 1 1254",
        "Satellite Number": 1254,
        "Semi-Major Axis(m)": 6931778.249405717,
        "Time(s)": 530
    },
    {
        "Altitude(m)": 554518.7168712253,
        "Argument of Periapsis(deg)": 0.018823237893606792,
        "Eccentricity": 0.0,
        "Inclination(deg)": 53.0,
        "Latitude(deg)": 26.503419349545748,
        "Longitude(deg)": -155.30896494413795,
        "Mean Anomaly(deg)": 33.84888499206263,
        "RAAN(deg)": 284.97198641581645,
        "Satellite Name": "Starlink Shell 1 1254",
        "Satellite Number": 1254,
        "Semi-Major Axis(m)": 6931778.249405717,
        "Time(s)": 540
    },
    {
        "Altitude(m)": 554583.0870124768,
        "Argument of Periapsis(deg)": 0.019171816373118027,
        "Eccentricity": 0.0,
        "Inclination(deg)": 53.0,
        "Latitude(deg)": 26.969313062897136,
        "Longitude(deg)": -154.8785177783007,
        "Mean Anomaly(deg)": 34.47571619561933,
        "RAAN(deg)": 284.971467645739,
        "Satellite Name": "Starlink Shell 1 1254",
        "Satellite Number": 1254,
        "Semi-Major Axis(m)": 6931778.249405717,
        "Time(s)": 550
    },
    {
        "Altitude(m)": 554648.8652773168,
        "Argument of Periapsis(deg)": 0.019520394852629266,
        "Eccentricity": 0.0,
        "Inclination(deg)": 53.0,
        "Latitude(deg)": 27.433585419077605,
        "Longitude(deg)": -154.44418138776456,
        "Mean Anomaly(deg)": 35.102547399176075,
        "RAAN(deg)": 284.9709488756615,
        "Satellite Name": "Starlink Shell 1 1254",
        "Satellite Number": 1254,
        "Semi-Major Axis(m)": 6931778.249405717,
        "Time(s)": 560
    }
]